start=new Date('2022-06-27T00:00:00.000Z').valueOf();
sats=[{"MEAN_ANOMALY":"318.8317","PERIOD":"95.437","RCS_SIZE":"LARGE","OBJECT_TYPE":"PAYLOAD","INCLINATION":"53.2173","BSTAR":"0.00012335000000","REV_AT_EPOCH":"2452","SEMIMAJOR_AXIS":"6917.867","RA_OF_ASC_NODE":"257.4639","MEAN_MOTION_DDOT":"0.0000000000000","OBJECT_ID":"2022-005AW","EPHEMERIS_TYPE":"0","CENTER_NAME":"EARTH","LAUNCH_DATE":"2022-01-19","REF_FRAME":"TEME","ELEMENT_SET_NO":"999","FILE":"3503441","TLE_LINE2":"2 51148  53.2173 257.4639 0002050  41.2830 318.8317 15.08844383 24521","COUNTRY_CODE":"US","CLASSIFICATION_TYPE":"U","MEAN_ELEMENT_THEORY":"SGP4","SITE":"AFETR","ARG_OF_PERICENTER":"41.2830","PERIAPSIS":"538.314","TLE_LINE1":"1 51148U 22005AW  22177.91765075  .00001676  00000-0  12335-3 0  9994","NORAD_CAT_ID":"51148","DECAY_DATE":null,"GP_ID":"206928700","MEAN_MOTION_DOT":"0.00001676","OBJECT_NAME":"STARLINK-3359","EPOCH":"2022-06-26T22:01:25.024800","MEAN_MOTION":"15.08844383","ECCENTRICITY":"0.00020500","TIME_SYSTEM":"UTC","APOAPSIS":"541.150"},{"PERIOD":"95.437","MEAN_ANOMALY":"323.8162","OBJECT_TYPE":"PAYLOAD","RCS_SIZE":"LARGE","BSTAR":"0.00020578000000","INCLINATION":"53.2158","RA_OF_ASC_NODE":"257.4758","SEMIMAJOR_AXIS":"6917.869","REV_AT_EPOCH":"2452","MEAN_MOTION_DDOT":"0.0000000000000","EPHEMERIS_TYPE":"0","CENTER_NAME":"EARTH","OBJECT_ID":"2022-005AX","REF_FRAME":"TEME","LAUNCH_DATE":"2022-01-19","TLE_LINE2":"2 51149  53.2158 257.4758 0002273  36.2984 323.8162 15.08843597 24528","COUNTRY_CODE":"US","FILE":"3503441","ELEMENT_SET_NO":"999","MEAN_ELEMENT_THEORY":"SGP4","CLASSIFICATION_TYPE":"U","DECAY_DATE":null,"NORAD_CAT_ID":"51149","TLE_LINE1":"1 51149U 22005AX  22177.91397010  .00002989  00000-0  20578-3 0  9991","PERIAPSIS":"538.162","SITE":"AFETR","ARG_OF_PERICENTER":"36.2984","MEAN_MOTION_DOT":"0.00002989","GP_ID":"206926971","MEAN_MOTION":"15.08843597","OBJECT_NAME":"STARLINK-3360","EPOCH":"2022-06-26T21:56:07.016640","TIME_SYSTEM":"UTC","APOAPSIS":"541.307","ECCENTRICITY":"0.00022730"},{"MEAN_MOTION_DDOT":"0.0000000000000","OBJECT_ID":"2022-005AY","EPHEMERIS_TYPE":"0","CENTER_NAME":"EARTH","LAUNCH_DATE":"2022-01-19","REF_FRAME":"TEME","COUNTRY_CODE":"US","TLE_LINE2":"2 51150  53.2187 248.8561 0001860  53.5839 306.5325 15.08841336 24629","FILE":"3503441","ELEMENT_SET_NO":"999","MEAN_ANOMALY":"306.5325","PERIOD":"95.437","OBJECT_TYPE":"PAYLOAD","RCS_SIZE":"LARGE","INCLINATION":"53.2187","BSTAR":"0.00022484000000","RA_OF_ASC_NODE":"248.8561","SEMIMAJOR_AXIS":"6917.876","REV_AT_EPOCH":"2462","MEAN_MOTION":"15.08841336","OBJECT_NAME":"STARLINK-3357","EPOCH":"2022-06-26T14:32:18.940128","APOAPSIS":"541.028","TIME_SYSTEM":"UTC","ECCENTRICITY":"0.00018600","MEAN_ELEMENT_THEORY":"SGP4","CLASSIFICATION_TYPE":"U","TLE_LINE1":"1 51150U 22005AY  22177.60577477  .00003292  00000-0  22484-3 0  9992","PERIAPSIS":"538.455","SITE":"AFETR","ARG_OF_PERICENTER":"53.5839","DECAY_DATE":null,"NORAD_CAT_ID":"51150","MEAN_MOTION_DOT":"0.00003292","GP_ID":"206927721"},{"TLE_LINE1":"1 51151U 22005AZ  22177.70789826  .00000989  00000-0  80254-4 0  9997","SITE":"AFETR","PERIAPSIS":"538.481","ARG_OF_PERICENTER":"47.0261","DECAY_DATE":null,"NORAD_CAT_ID":"51151","MEAN_ELEMENT_THEORY":"SGP4","CLASSIFICATION_TYPE":"U","MEAN_MOTION_DOT":"0.00000989","GP_ID":"206927973","MEAN_MOTION":"15.08830543","OBJECT_NAME":"STARLINK-3361","EPOCH":"2022-06-26T16:59:22.409664","APOAPSIS":"541.067","TIME_SYSTEM":"UTC","ECCENTRICITY":"0.00018690","OBJECT_TYPE":"PAYLOAD","RCS_SIZE":"LARGE","MEAN_ANOMALY":"313.0888","PERIOD":"95.438","RA_OF_ASC_NODE":"258.3950","REV_AT_EPOCH":"2449","SEMIMAJOR_AXIS":"6917.909","INCLINATION":"53.2158","BSTAR":"0.00008025400000","OBJECT_ID":"2022-005AZ","EPHEMERIS_TYPE":"0","CENTER_NAME":"EARTH","MEAN_MOTION_DDOT":"0.0000000000000","TLE_LINE2":"2 51151  53.2158 258.3950 0001869  47.0261 313.0888 15.08830543 24492","COUNTRY_CODE":"US","FILE":"3503441","ELEMENT_SET_NO":"999","LAUNCH_DATE":"2022-01-19","REF_FRAME":"TEME"},{"MEAN_MOTION_DDOT":"0.0000000000000","OBJECT_ID":"2022-005BA","EPHEMERIS_TYPE":"0","CENTER_NAME":"EARTH","LAUNCH_DATE":"2022-01-19","REF_FRAME":"TEME","ELEMENT_SET_NO":"999","TLE_LINE2":"2 51152  53.2173 257.4910 0001878  46.6876 313.4273 15.08836302 24528","FILE":"3503441","COUNTRY_CODE":"US","MEAN_ANOMALY":"313.4273","PERIOD":"95.438","RCS_SIZE":"LARGE","OBJECT_TYPE":"PAYLOAD","INCLINATION":"53.2173","BSTAR":"0.00000243050000","REV_AT_EPOCH":"2452","SEMIMAJOR_AXIS":"6917.892","RA_OF_ASC_NODE":"257.4910","EPOCH":"2022-06-26T21:50:49.403328","OBJECT_NAME":"STARLINK-3364","MEAN_MOTION":"15.08836302","ECCENTRICITY":"0.00018780","APOAPSIS":"541.056","TIME_SYSTEM":"UTC","MEAN_ELEMENT_THEORY":"SGP4","CLASSIFICATION_TYPE":"U","ARG_OF_PERICENTER":"46.6876","SITE":"AFETR","PERIAPSIS":"538.458","TLE_LINE1":"1 51152U 22005BA  22177.91029402 -.00000249  00000-0  24305-5 0  9994","NORAD_CAT_ID":"51152","DECAY_DATE":null,"GP_ID":"206928201","MEAN_MOTION_DOT":"-0.00000249"},{"OBJECT_TYPE":"PAYLOAD","RCS_SIZE":"LARGE","MEAN_ANOMALY":"318.7730","PERIOD":"95.437","RA_OF_ASC_NODE":"227.7221","REV_AT_EPOCH":"2318","SEMIMAJOR_AXIS":"6917.863","INCLINATION":"53.2173","BSTAR":"0.00003586300000","OBJECT_ID":"2022-010E","EPHEMERIS_TYPE":"0","CENTER_NAME":"EARTH","MEAN_MOTION_DDOT":"0.0000000000000","TLE_LINE2":"2 51460  53.2173 227.7221 0001916  41.3407 318.7730 15.08845554 23186","COUNTRY_CODE":"US","FILE":"3503400","ELEMENT_SET_NO":"999","LAUNCH_DATE":"2022-02-03","REF_FRAME":"TEME","TLE_LINE1":"1 51460U 22010E   22177.85784515  .00000283  00000-0  35863-4 0  9995","ARG_OF_PERICENTER":"41.3407","SITE":"AFETR","PERIAPSIS":"538.403","NORAD_CAT_ID":"51460","DECAY_DATE":null,"MEAN_ELEMENT_THEORY":"SGP4","CLASSIFICATION_TYPE":"U","MEAN_MOTION_DOT":"0.00000283","GP_ID":"206903327","MEAN_MOTION":"15.08845554","OBJECT_NAME":"STARLINK-3167","EPOCH":"2022-06-26T20:35:17.820960","TIME_SYSTEM":"UTC","APOAPSIS":"541.054","ECCENTRICITY":"0.00019160"},{"REF_FRAME":"TEME","LAUNCH_DATE":"2022-02-03","FILE":"3503441","TLE_LINE2":"2 51461  53.2175 227.6464 0002253  47.7751 312.3432 15.08831729 22743","COUNTRY_CODE":"US","ELEMENT_SET_NO":"999","MEAN_MOTION_DDOT":"0.0000000000000","CENTER_NAME":"EARTH","EPHEMERIS_TYPE":"0","OBJECT_ID":"2022-010F","BSTAR":"0.00002568800000","INCLINATION":"53.2175","RA_OF_ASC_NODE":"227.6464","REV_AT_EPOCH":"2274","SEMIMAJOR_AXIS":"6917.906","PERIOD":"95.438","MEAN_ANOMALY":"312.3432","OBJECT_TYPE":"PAYLOAD","RCS_SIZE":"LARGE","APOAPSIS":"541.329","TIME_SYSTEM":"UTC","ECCENTRICITY":"0.00022530","MEAN_MOTION":"15.08831729","EPOCH":"2022-06-26T21:01:48.831168","OBJECT_NAME":"STARLINK-3181","MEAN_MOTION_DOT":"0.00000120","GP_ID":"206927484","CLASSIFICATION_TYPE":"U","MEAN_ELEMENT_THEORY":"SGP4","NORAD_CAT_ID":"51461","DECAY_DATE":null,"TLE_LINE1":"1 51461U 22010F   22177.87625962  .00000120  00000-0  25688-4 0  9992","SITE":"AFETR","PERIAPSIS":"538.212","ARG_OF_PERICENTER":"47.7751"},{"OBJECT_NAME":"STARLINK-3166","EPOCH":"2022-06-26T20:56:30.395328","MEAN_MOTION":"15.08841932","ECCENTRICITY":"0.00023010","TIME_SYSTEM":"UTC","APOAPSIS":"541.331","DECAY_DATE":null,"NORAD_CAT_ID":"51462","PERIAPSIS":"538.148","SITE":"AFETR","ARG_OF_PERICENTER":"37.6593","TLE_LINE1":"1 51462U 22010G   22177.87257402  .00000885  00000-0  73727-4 0  9998","CLASSIFICATION_TYPE":"U","MEAN_ELEMENT_THEORY":"SGP4","GP_ID":"206927235","MEAN_MOTION_DOT":"0.00000885","CENTER_NAME":"EARTH","EPHEMERIS_TYPE":"0","OBJECT_ID":"2022-010G","MEAN_MOTION_DDOT":"0.0000000000000","ELEMENT_SET_NO":"999","TLE_LINE2":"2 51462  53.2174 227.6626 0002301  37.6593 322.4560 15.08841932 22740","FILE":"3503441","COUNTRY_CODE":"US","REF_FRAME":"TEME","LAUNCH_DATE":"2022-02-03","RCS_SIZE":"LARGE","OBJECT_TYPE":"PAYLOAD","PERIOD":"95.437","MEAN_ANOMALY":"322.4560","SEMIMAJOR_AXIS":"6917.874","REV_AT_EPOCH":"2274","RA_OF_ASC_NODE":"227.6626","BSTAR":"0.00007372700000","INCLINATION":"53.2174"},{"MEAN_ANOMALY":"306.4580","PERIOD":"95.438","OBJECT_TYPE":"PAYLOAD","RCS_SIZE":"LARGE","INCLINATION":"53.2180","BSTAR":"-0.00008947100000","RA_OF_ASC_NODE":"227.7725","REV_AT_EPOCH":"2243","SEMIMAJOR_AXIS":"6917.902","MEAN_MOTION_DDOT":"0.0000000000000","OBJECT_ID":"2022-010H","CENTER_NAME":"EARTH","EPHEMERIS_TYPE":"0","LAUNCH_DATE":"2022-02-03","REF_FRAME":"TEME","FILE":"3503441","TLE_LINE2":"2 51463  53.2180 227.7725 0001956  53.6593 306.4580 15.08832819 22436","COUNTRY_CODE":"US","ELEMENT_SET_NO":"999","MEAN_ELEMENT_THEORY":"SGP4","CLASSIFICATION_TYPE":"U","TLE_LINE1":"1 51463U 22010H   22177.84682180 -.00001712  00000-0 -89471-4 0  9996","ARG_OF_PERICENTER":"53.6593","SITE":"AFETR","PERIAPSIS":"538.414","NORAD_CAT_ID":"51463","DECAY_DATE":null,"MEAN_MOTION_DOT":"-0.00001712","GP_ID":"206928486","MEAN_MOTION":"15.08832819","EPOCH":"2022-06-26T20:19:25.403520","OBJECT_NAME":"STARLINK-3419","TIME_SYSTEM":"UTC","APOAPSIS":"541.120","ECCENTRICITY":"0.00019560"},{"MEAN_MOTION_DOT":"0.00001942","GP_ID":"206928714","CLASSIFICATION_TYPE":"U","MEAN_ELEMENT_THEORY":"SGP4","NORAD_CAT_ID":"51464","DECAY_DATE":null,"TLE_LINE1":"1 51464U 22010J   22177.86520720  .00001942  00000-0  14007-3 0  9995","SITE":"AFETR","PERIAPSIS":"538.226","ARG_OF_PERICENTER":"43.4008","TIME_SYSTEM":"UTC","APOAPSIS":"541.227","ECCENTRICITY":"0.00021690","MEAN_MOTION":"15.08846228","OBJECT_NAME":"STARLINK-3189","EPOCH":"2022-06-26T20:45:53.902080","BSTAR":"0.00014007000000","INCLINATION":"53.2174","RA_OF_ASC_NODE":"227.6911","REV_AT_EPOCH":"2324","SEMIMAJOR_AXIS":"6917.861","PERIOD":"95.437","MEAN_ANOMALY":"316.7154","OBJECT_TYPE":"PAYLOAD","RCS_SIZE":"LARGE","REF_FRAME":"TEME","LAUNCH_DATE":"2022-02-03","TLE_LINE2":"2 51464  53.2174 227.6911 0002169  43.4008 316.7154 15.08846228 23241","FILE":"3503441","COUNTRY_CODE":"US","ELEMENT_SET_NO":"999","MEAN_MOTION_DDOT":"0.0000000000000","CENTER_NAME":"EARTH","EPHEMERIS_TYPE":"0","OBJECT_ID":"2022-010J"}];
